{"type":"FeatureCollection","features":[{"type":"Feature","properties":{},"geometry":{"type":"Polygon","coordinates":[[[37.3707813,55.7868758],[37.3705912,55.7864631],[37.3704735,55.7862077],[37.3702791,55.7857093],[37.3700917,55.7851752],[37.3699935,55.7848062],[37.3699652,55.7847001],[37.3698643,55.7842101],[37.3697324,55.7834754],[37.3696679,55.782664],[37.3695981,55.7809807],[37.3695608,55.7793076],[37.3695499,55.7788417],[37.3695262,55.7778311],[37.3695233,55.7777089],[37.3695018,55.7767981],[37.3694483,55.7747541],[37.3694189,55.7734827],[37.3693569,55.7719422],[37.3693308,55.7707584],[37.3693123,55.7699212],[37.3692346,55.7681674],[37.3692178,55.7676116],[37.3691248,55.765692],[37.3691166,55.7655236],[37.3691159,55.7655037],[37.3691043,55.7646837],[37.3690823,55.763294],[37.3690658,55.7618754],[37.3690602,55.7611535],[37.369035,55.7588445],[37.3690083,55.7578567],[37.3689927,55.7572781],[37.36888,55.7537596],[37.3688717,55.7535005],[37.3688382,55.7521438],[37.3688247,55.7516958],[37.3688124,55.7502889],[37.3688549,55.7498551],[37.3690013,55.7485209],[37.3694133,55.7464484],[37.3701428,55.7442551],[37.3712154,55.7420216],[37.3712221,55.7420075],[37.3712682,55.7419114],[37.3715596,55.7413047],[37.3717135,55.7409841],[37.3718846,55.7406515],[37.3729331,55.7386138],[37.3744442,55.7356361],[37.374596,55.7353552],[37.3757084,55.7331988],[37.3759051,55.732809],[37.3761252,55.7323726],[37.3771293,55.7303955],[37.3777247,55.7292466],[37.3779394,55.7288322],[37.3781391,55.7284468],[37.3782996,55.7281461],[37.3790686,55.7265673],[37.3792313,55.7262616],[37.3796167,55.7255374],[37.3802794,55.7242532],[37.3804792,55.7238571],[37.38054,55.7237361],[37.3820374,55.7208221],[37.3827887,55.7193412],[37.3828687,55.7191845],[37.3838819,55.7172193],[37.3844926,55.7160149],[37.3849853,55.7150367],[37.3854773,55.7140606],[37.3858528,55.7133567],[37.3863226,55.7125564],[37.3866094,55.7121021],[37.3870826,55.711444],[37.3876043,55.7107855],[37.3882331,55.7100723],[37.3886588,55.7096248],[37.3896149,55.7087217],[37.3901708,55.708266],[37.3905653,55.7079561],[37.3921425,55.7068138],[37.3926516,55.7064271],[37.3927075,55.7063847],[37.3941758,55.7053084],[37.3952561,55.7045057],[37.3963102,55.7037293],[37.3983327,55.7022213],[37.3985259,55.7020762],[37.3992668,55.7015145],[37.4000631,55.7009414],[37.4012991,55.7000266],[37.401509,55.6998637],[37.4024396,55.6991792],[37.402743,55.698947],[37.4045396,55.6975405],[37.4073003,55.6955511],[37.4090545,55.6942869],[37.4098682,55.6936588],[37.410821,55.6928638],[37.4116706,55.6920411],[37.4122075,55.6914402],[37.4124893,55.6911101],[37.4132838,55.6900677],[37.4134985,55.6897542],[37.4139275,55.6890365],[37.4143249,55.6882907],[37.4146262,55.6876121],[37.4147841,55.687176],[37.4148544,55.686982],[37.4149781,55.6866032],[37.4150457,55.6863961],[37.4152295,55.6858485],[37.4152777,55.6857047],[37.4153587,55.6854632],[37.4154869,55.6850814],[37.4157798,55.6843901],[37.4159307,55.6840591],[37.4161276,55.6836643],[37.4163438,55.683281],[37.4166006,55.6828524],[37.4168722,55.6824356],[37.4173229,55.6818153],[37.4182216,55.6806076],[37.4193299,55.6791261],[37.4203793,55.6777234],[37.4204993,55.677563],[37.421562,55.6761424],[37.4225533,55.6748204],[37.4226678,55.6746677],[37.423444,55.6736325],[37.4255041,55.6708848],[37.4266827,55.6693222],[37.4267508,55.6692319],[37.4275461,55.6681485],[37.4281623,55.6673252],[37.4287064,55.6665833],[37.4290138,55.6661876],[37.4296491,55.6653435],[37.4299261,55.6649874],[37.4302161,55.6646217],[37.4306877,55.6640328],[37.4309643,55.6636979],[37.4321598,55.6623888],[37.4327952,55.6617409],[37.4339637,55.6605423],[37.4343623,55.6601368],[37.4352623,55.6593173],[37.4360862,55.6585855],[37.4365763,55.6581671],[37.4386372,55.6564015],[37.4408487,55.6545068],[37.441319,55.6541145],[37.4417829,55.6537471],[37.4419436,55.6536166],[37.4436002,55.6523552],[37.4438028,55.6521894],[37.4440031,55.6520182],[37.4447396,55.6513885],[37.4453624,55.650856],[37.4514588,55.6456474],[37.452392,55.6448499],[37.4540205,55.6434585],[37.4565677,55.6412864],[37.4567814,55.6411042],[37.4590366,55.6391814],[37.4598233,55.6385111],[37.459841,55.6384959],[37.4612514,55.6372783],[37.4626407,55.6361022],[37.4626894,55.636061],[37.4628234,55.6359459],[37.462987,55.6358059],[37.46409,55.6348623],[37.4656656,55.6335049],[37.4661108,55.6331225],[37.4669134,55.6324331],[37.4675596,55.6318654],[37.4681641,55.6313485],[37.4684881,55.6310804],[37.4696257,55.630121],[37.4698988,55.6298914],[37.4713729,55.6286024],[37.4717918,55.6282425],[37.4728225,55.6273571],[37.4740623,55.6263158],[37.4743995,55.6260326],[37.4744888,55.6259576],[37.4749209,55.6255985],[37.4785647,55.6224624],[37.4792597,55.6218642],[37.479414,55.6217314],[37.4802402,55.6210202],[37.48032,55.6209515],[37.4820882,55.6194406],[37.4846839,55.6172227],[37.4878149,55.6145304],[37.4886661,55.6138],[37.4889831,55.613528],[37.4891799,55.6133591],[37.4913209,55.6115217],[37.4922794,55.6106991],[37.4959307,55.6075654],[37.4977447,55.6060085],[37.4993351,55.6046817],[37.4998919,55.6041999],[37.5021202,55.6022744],[37.5028408,55.6016509],[37.5034049,55.601169],[37.5036607,55.6009413],[37.504547,55.6001925],[37.5052151,55.5996786],[37.5058936,55.5991972],[37.5059941,55.5991259],[37.5065912,55.5987397],[37.5070167,55.598467],[37.507222,55.5983354],[37.5080941,55.597844],[37.5081309,55.5978232],[37.5087941,55.5974506],[37.5094792,55.5970931],[37.5103106,55.59669],[37.5110909,55.5963265],[37.5115648,55.596118],[37.5120623,55.5959127],[37.513344,55.5954233],[37.5139493,55.5952209],[37.5143726,55.5950793],[37.5155897,55.5946919],[37.5167328,55.5943541],[37.5173047,55.5941994],[37.5179483,55.5940413],[37.5189226,55.5938081],[37.5221383,55.5930383],[37.523665,55.5926728],[37.5251278,55.5923226],[37.5284132,55.591536],[37.5288576,55.5914296],[37.5296557,55.5912385],[37.5310146,55.5909132],[37.5346042,55.5900538],[37.5446019,55.5876601],[37.5446859,55.58764],[37.5454444,55.5874584],[37.5456053,55.5874199],[37.5467816,55.5871382],[37.5494712,55.5864942],[37.5559571,55.5849466],[37.5646022,55.5828711],[37.5674257,55.582195],[37.5691585,55.58178],[37.5715416,55.5812092],[37.5735737,55.5807224],[37.57552,55.5802562],[37.5793566,55.5793372],[37.5815813,55.5788043],[37.586788,55.5775571],[37.5879444,55.5772801],[37.5885459,55.5771378],[37.589177,55.5769965],[37.5897729,55.5768708],[37.5904077,55.5767563],[37.5910886,55.5766385],[37.5920793,55.5764711],[37.5922715,55.5764386],[37.5929158,55.5763351],[37.5935186,55.5762446],[37.5941263,55.5761609],[37.5947365,55.57609],[37.5953881,55.5760234],[37.5960118,55.5759675],[37.5965508,55.5759259],[37.5970963,55.5758881],[37.5982964,55.5758145],[37.5994963,55.5757444],[37.5996559,55.5757351],[37.6015569,55.5756242],[37.6018179,55.575609],[37.6067077,55.5753235],[37.6082509,55.5752364],[37.6086097,55.5752152],[37.6104106,55.5751089],[37.6113141,55.5750556],[37.6123216,55.5749961],[37.6125991,55.5749797],[37.6136634,55.5749176],[37.6153773,55.5748245],[37.6166337,55.5747512],[37.6186129,55.5746342],[37.619873,55.5745587],[37.6222835,55.5744144],[37.6269718,55.5741391],[37.6276885,55.574097],[37.6324099,55.5738198],[37.6347518,55.5736823],[37.6362916,55.5735919],[37.6386494,55.5734632],[37.6401486,55.5733654],[37.6422973,55.5732392],[37.645153,55.5730716],[37.6457708,55.5730353],[37.6476692,55.5729238],[37.6492051,55.5728336],[37.6525399,55.5726377],[37.6530635,55.572607],[37.65412,55.5725439],[37.6550682,55.5724873],[37.6577238,55.5723287],[37.663302,55.5719955],[37.6639354,55.571959],[37.6646183,55.5719273],[37.6653014,55.5718908],[37.6659333,55.5718668],[37.6666035,55.5718424],[37.6672726,55.5718275],[37.6679518,55.5718181],[37.6686353,55.5718208],[37.6693119,55.5718357],[37.6699969,55.571856],[37.6701134,55.5718607],[37.6706718,55.5718832],[37.6713477,55.5719226],[37.6720167,55.5719728],[37.6729868,55.5720703],[37.6738626,55.5721581],[37.674698,55.572248],[37.6753628,55.5723359],[37.6760123,55.5724226],[37.6766742,55.5725247],[37.677953,55.5727456],[37.678593,55.572864],[37.6792398,55.5730013],[37.6798759,55.5731429],[37.6804938,55.5733033],[37.6810831,55.5734571],[37.6816596,55.5736099],[37.6821854,55.5737551],[37.682762,55.573925],[37.6833257,55.5741012],[37.6838741,55.5742786],[37.6844115,55.5744589],[37.6848949,55.5746294],[37.6871019,55.5754285],[37.6877222,55.5756531],[37.6888875,55.5760888],[37.6932283,55.5777119],[37.694651,55.5782438],[37.6981941,55.5795686],[37.6988695,55.5798201],[37.6995738,55.5800824],[37.7010887,55.5806465],[37.7018495,55.5809298],[37.7031195,55.5814028],[37.7048714,55.5820562],[37.7070666,55.5828769],[37.7077618,55.5831315],[37.7086383,55.5834579],[37.7104118,55.5841183],[37.7114662,55.5845109],[37.7133158,55.5851996],[37.7149885,55.5858157],[37.7156728,55.5860725],[37.7187859,55.5872423],[37.7199483,55.5876867],[37.7202575,55.5878165],[37.7210312,55.5881459],[37.7229966,55.5889543],[37.7245529,55.5896196],[37.7258429,55.5901708],[37.7311695,55.5923999],[37.7373043,55.5949724],[37.7386329,55.5955209],[37.7389941,55.5956704],[37.7400008,55.5960919],[37.7429269,55.5973188],[37.7467623,55.5989269],[37.7476817,55.5993179],[37.7488972,55.5998095],[37.7500925,55.6003185],[37.7511173,55.6007584],[37.7520386,55.6011533],[37.7531275,55.6016483],[37.7540366,55.6020891],[37.7551617,55.6026689],[37.755857,55.6030447],[37.7560922,55.6031718],[37.7571675,55.6037632],[37.7617579,55.6063003],[37.7629572,55.6069747],[37.7662818,55.608803],[37.770938,55.6113635],[37.7731382,55.6125799],[37.7752365,55.6137249],[37.77903,55.6158296],[37.7795301,55.6161054],[37.7797959,55.6162549],[37.7802233,55.6164954],[37.7812962,55.6170962],[37.7815856,55.6172518],[37.7817846,55.6173581],[37.7821157,55.6175353],[37.7822754,55.6176229],[37.7855813,55.6194064],[37.7865232,55.6198738],[37.7879995,55.6205591],[37.788626,55.6208407],[37.7898015,55.6213995],[37.7908205,55.6219348],[37.7916875,55.622422],[37.7953214,55.6244047],[37.796272,55.6249782],[37.7968651,55.6253512],[37.7975151,55.6257752],[37.7981025,55.6261939],[37.7984029,55.6263999],[37.7988267,55.6266997],[37.7992913,55.6270116],[37.7994445,55.6271145],[37.8001899,55.6276253],[37.800332,55.6277227],[37.8046858,55.6305502],[37.8055512,55.6311123],[37.8066033,55.6317955],[37.8070607,55.6320945],[37.8074061,55.6323204],[37.8077904,55.6325717],[37.8170318,55.6386135],[37.8177172,55.6390767],[37.8196262,55.6403236],[37.8197701,55.6404176],[37.8201443,55.640662],[37.8232828,55.6427119],[37.8269293,55.645096],[37.8272692,55.6453185],[37.8275482,55.6455004],[37.8279893,55.645788],[37.8294431,55.6467362],[37.8304856,55.647416],[37.832122,55.6485109],[37.8327969,55.6489693],[37.8328498,55.6490043],[37.8330626,55.6491635],[37.8346436,55.6503669],[37.8356026,55.6512285],[37.8361739,55.6518076],[37.8368023,55.6525248],[37.8375487,55.6535167],[37.8379214,55.6540743],[37.8380538,55.6542763],[37.8384289,55.6549316],[37.8387167,55.6555083],[37.8389347,55.6559452],[37.8391914,55.6565613],[37.8393885,55.6571406],[37.8394741,55.6574846],[37.8395847,55.6579448],[37.839618,55.6581148],[37.8397699,55.6588889],[37.839864,55.6597364],[37.8398735,55.6599299],[37.8399036,55.6605474],[37.8399053,55.6613132],[37.8398092,55.6622023],[37.8396727,55.6629726],[37.8394739,55.6637435],[37.8391115,55.6647977],[37.8371327,55.6701768],[37.835781,55.6738901],[37.8350558,55.6758821],[37.83392,55.6790018],[37.8323718,55.6827428],[37.83203,55.6836233],[37.8317733,55.6843188],[37.8315227,55.6849976],[37.8306269,55.6873731],[37.8304308,55.6879419],[37.8301058,55.6890778],[37.8298558,55.6901227],[37.8297221,55.6909862],[37.8295693,55.6919969],[37.8295172,55.6928811],[37.8295275,55.6937366],[37.8295902,55.6947576],[37.8297062,55.6956904],[37.8297941,55.6962207],[37.8298772,55.6966562],[37.8299866,55.6970429],[37.8300942,55.6974229],[37.8301116,55.6974838],[37.8302718,55.6980439],[37.8304232,55.6984837],[37.8305431,55.6988319],[37.8306081,55.6989955],[37.8308483,55.6996002],[37.8311531,55.7002541],[37.8312158,55.7003887],[37.8315914,55.7011462],[37.8332478,55.7042183],[37.8335883,55.7048497],[37.833856,55.7053542],[37.834774,55.7070856],[37.8350586,55.7076225],[37.8353762,55.7082283],[37.8360121,55.7094142],[37.8363837,55.7101109],[37.8366442,55.7106054],[37.8369028,55.7111006],[37.8376436,55.7125143],[37.8380282,55.7132796],[37.8383206,55.7140191],[37.8385582,55.7147311],[37.8387407,55.7155128],[37.8389095,55.7165561],[37.839358,55.7202335],[37.8395387,55.7217562],[37.839693,55.7229791],[37.8403828,55.7287282],[37.840488,55.7296049],[37.8407507,55.7317929],[37.8407695,55.7319498],[37.8408515,55.732651],[37.8408754,55.7328551],[37.841067,55.7344086],[37.8411211,55.7348327],[37.841356,55.7366728],[37.8416902,55.739376],[37.8418267,55.7404799],[37.8418892,55.7410489],[37.8420083,55.7421328],[37.8420965,55.7436056],[37.8421059,55.7438606],[37.842129,55.7444842],[37.8421573,55.7452511],[37.8421842,55.745838],[37.8422551,55.747427],[37.8422582,55.7474963],[37.8423034,55.7486952],[37.8423383,55.7494363],[37.8423569,55.749927],[37.8424203,55.7507127],[37.8425062,55.7521301],[37.8425321,55.752558],[37.842592,55.7535481],[37.8426036,55.7538416],[37.8426231,55.7545063],[37.8426328,55.7548062],[37.8427029,55.7560172],[37.8427115,55.7561669],[37.8428298,55.7573644],[37.8428379,55.7575634],[37.842841,55.7576379],[37.8428852,55.7587186],[37.8428931,55.7589104],[37.842901,55.7593294],[37.8429258,55.7597698],[37.8429567,55.7603176],[37.8429954,55.7609665],[37.8430686,55.7623253],[37.8430984,55.7628789],[37.8432357,55.7657182],[37.8432608,55.7666892],[37.8433221,55.7673777],[37.8433501,55.7678938],[37.8433559,55.7680166],[37.8433872,55.7684959],[37.8434932,55.7701217],[37.843494,55.7704914],[37.8434939,55.7714522],[37.8433395,55.7729199],[37.8432085,55.7741417],[37.8431873,55.7743391],[37.8429426,55.7764926],[37.8429365,55.7765472],[37.842885,55.7769562],[37.8428433,55.7773793],[37.8428357,55.7774471],[37.8425432,55.7800599],[37.8424821,55.7807673],[37.842456,55.7810694],[37.8422379,55.7833633],[37.8420153,55.785704],[37.8415681,55.7900363],[37.8414316,55.7910413],[37.8411377,55.7934486],[37.8410942,55.793805],[37.8406761,55.7972296],[37.8404618,55.7989852],[37.8402953,55.8003588],[37.8400783,55.8025053],[37.839965,55.8033475],[37.8399187,55.803692],[37.8398887,55.804002],[37.8398538,55.8043622],[37.8398374,55.8046171],[37.8398251,55.8048098],[37.8398183,55.8049154],[37.8398124,55.8054158],[37.839815,55.8057233],[37.8398183,55.8061084],[37.839795,55.8068347],[37.8397009,55.8079585],[37.8394727,55.8100538],[37.8394463,55.810323],[37.8394225,55.8105152],[37.8393977,55.8107426],[37.8393492,55.8111883],[37.8390879,55.8136074],[37.839019,55.8141403],[37.8388805,55.8151967],[37.8387008,55.8161852],[37.8385614,55.8169376],[37.8385093,55.8172509],[37.838333,55.8183099],[37.8383094,55.8184597],[37.8382493,55.818797],[37.8380294,55.8197207],[37.8379335,55.8200972],[37.8377601,55.8205231],[37.8374033,55.8213709],[37.8370977,55.8219948],[37.83674,55.8225892],[37.8363164,55.8232239],[37.835766,55.823984],[37.8353044,55.8245514],[37.8348374,55.8250701],[37.8346375,55.82528],[37.8343733,55.8255576],[37.8339538,55.8259749],[37.833267,55.8265789],[37.8327232,55.8270346],[37.8321812,55.8274665],[37.8319322,55.8276614],[37.831234,55.8281478],[37.8303505,55.8287208],[37.8299789,55.828954],[37.8292361,55.8293975],[37.8289088,55.8295711],[37.8282637,55.829912],[37.8279035,55.8301024],[37.8267946,55.8306846],[37.8263751,55.8309048],[37.8256833,55.8312679],[37.8238223,55.8322401],[37.8156769,55.8364367],[37.8120269,55.8383171],[37.8002346,55.8443916],[37.7958348,55.8466578],[37.788434,55.8504694],[37.7864838,55.8514738],[37.7766386,55.8565437],[37.7658636,55.8620935],[37.7648462,55.8626153],[37.7530316,55.8686975],[37.7511334,55.8696746],[37.7412028,55.874786],[37.7380035,55.8764301],[37.734741,55.8781066],[37.733911,55.8785331],[37.7336213,55.8786861],[37.7331239,55.8789442],[37.732999,55.879009],[37.7318521,55.8796041],[37.7309548,55.8800285],[37.7302012,55.8803652],[37.7295199,55.8806638],[37.7285696,55.8811087],[37.7279299,55.8814112],[37.7271732,55.8817873],[37.7266895,55.88204],[37.7265627,55.8821016],[37.7254404,55.8826739],[37.7253195,55.8827354],[37.7236774,55.8835871],[37.7216053,55.8846516],[37.720144,55.8853811],[37.7188216,55.8860665],[37.7173421,55.8868333],[37.7137951,55.8887058],[37.7132085,55.8890109],[37.7120941,55.8895448],[37.7112096,55.8899476],[37.7105444,55.8902528],[37.7102496,55.890388],[37.7100033,55.890501],[37.7085517,55.8911398],[37.7078453,55.891443],[37.7069705,55.8918185],[37.7060304,55.8921841],[37.7050095,55.8925455],[37.7040451,55.8928536],[37.7033302,55.8930612],[37.7027163,55.8932394],[37.701444,55.8935699],[37.7001685,55.8938516],[37.699473,55.8939794],[37.6987414,55.8941184],[37.6973317,55.8943335],[37.6957233,55.8945227],[37.6943094,55.8946446],[37.6932025,55.8947134],[37.692735,55.8947425],[37.6924634,55.8947537],[37.6905074,55.8948344],[37.6871048,55.8949239],[37.6867673,55.8949334],[37.6856174,55.8949657],[37.6849543,55.8949843],[37.6847616,55.8949897],[37.6831749,55.8950356],[37.6807823,55.8951059],[37.6800378,55.8951235],[37.6778881,55.8951742],[37.676734,55.8952014],[37.6750829,55.8952436],[37.6738318,55.8952753],[37.672391,55.8953159],[37.6722382,55.8953221],[37.6693824,55.8954252],[37.6684148,55.8954601],[37.667806,55.8954819],[37.6645074,55.8956311],[37.6628626,55.8957177],[37.6610708,55.8958329],[37.6599624,55.8959042],[37.6575752,55.8960764],[37.6568856,55.8961328],[37.6560428,55.8962018],[37.6540769,55.8963627],[37.6517386,55.8965824],[37.6491809,55.8968394],[37.6465949,55.8971133],[37.6442295,55.8973914],[37.6418692,55.8976704],[37.6411511,55.8977712],[37.6378619,55.8982538],[37.6356411,55.8985847],[37.633431,55.8989396],[37.6313477,55.8993176],[37.6298266,55.8995939],[37.6290598,55.8997332],[37.628842,55.8997751],[37.6280163,55.8999298],[37.6264948,55.9002148],[37.6235204,55.9008334],[37.6205042,55.9014779],[37.6173235,55.9022095],[37.6145054,55.9028855],[37.6143628,55.9029206],[37.61168,55.9035808],[37.6084767,55.9044702],[37.6079907,55.9046051],[37.6072407,55.9048134],[37.5985897,55.9072163],[37.5980889,55.9073554],[37.5973204,55.9075688],[37.5967936,55.9077164],[37.5944415,55.9083751],[37.5941325,55.9084617],[37.5916785,55.909149],[37.5910596,55.909319],[37.5901547,55.9095675],[37.5891396,55.9098107],[37.5877854,55.9101028],[37.587117,55.910234],[37.5866717,55.9103121],[37.5856221,55.9104834],[37.5849144,55.9105896],[37.5843571,55.9106599],[37.5836781,55.9107455],[37.5824357,55.9108768],[37.5821736,55.910909],[37.5809601,55.9110032],[37.580008,55.9110612],[37.579466,55.9110942],[37.5782356,55.9111376],[37.5771674,55.911148],[37.5761364,55.9111352],[37.5760934,55.9111349],[37.5757086,55.911132],[37.5742218,55.9110844],[37.5728821,55.9110029],[37.5714441,55.9108756],[37.5691341,55.9106328],[37.5689596,55.9106145],[37.5665028,55.9103563],[37.5621584,55.909895],[37.553262,55.9089504],[37.5527556,55.9088991],[37.5507542,55.9086864],[37.5440147,55.9079438],[37.5431955,55.9078554],[37.5398227,55.9075061],[37.5397534,55.9074988],[37.5383344,55.9073434],[37.5360137,55.9070966],[37.5348383,55.906951],[37.5338881,55.9068173],[37.5329652,55.9066671],[37.5321572,55.9065296],[37.5311982,55.906341],[37.5299544,55.9060799],[37.5290206,55.9058654],[37.5280985,55.9056178],[37.5266525,55.9051889],[37.5255871,55.9048488],[37.5244136,55.9044333],[37.5232792,55.903985],[37.52139,55.9032048],[37.5207512,55.9029052],[37.5199877,55.9025663],[37.516444,55.9009936],[37.5081746,55.8973617],[37.5057637,55.8963028],[37.5056048,55.896233],[37.5033927,55.8952516],[37.5008139,55.8941303],[37.4970004,55.8924479],[37.4964801,55.8922173],[37.4960856,55.8920424],[37.4955334,55.8918006],[37.4944494,55.8913289],[37.4937863,55.8910404],[37.4920339,55.8902536],[37.4914295,55.8899902],[37.4905364,55.8896261],[37.4895274,55.8892385],[37.4886373,55.8889177],[37.487694,55.8886093],[37.4873966,55.8885164],[37.4867919,55.8883261],[37.4862679,55.8881827],[37.4857209,55.8880331],[37.4841912,55.8876321],[37.4835099,55.887456],[37.4820561,55.8870836],[37.481541,55.8869553],[37.4795977,55.8864711],[37.4786323,55.8862319],[37.4744802,55.8851928],[37.4731973,55.8848647],[37.4718937,55.8845374],[37.4710553,55.8843318],[37.4702598,55.8841322],[37.4694699,55.8839387],[37.4685637,55.8837438],[37.4677643,55.8835949],[37.4669487,55.8834532],[37.4659832,55.8833139],[37.4654462,55.8832409],[37.4644838,55.8831379],[37.4634118,55.8830393],[37.4622477,55.882966],[37.460938,55.8829124],[37.459678,55.8828638],[37.4557207,55.8828292],[37.4546349,55.8828156],[37.4537572,55.8827805],[37.4525283,55.8827198],[37.4517855,55.8826831],[37.4510255,55.8826352],[37.4501544,55.8825605],[37.4493307,55.8824807],[37.4482396,55.8823366],[37.4471684,55.8821626],[37.4462954,55.8819998],[37.4460923,55.8819595],[37.4447969,55.8817026],[37.4442253,55.8815835],[37.4436965,55.881447],[37.4426493,55.8811854],[37.4416131,55.8808809],[37.4401382,55.8803986],[37.4387179,55.8799516],[37.4381562,55.8797764],[37.4377497,55.8796495],[37.4376964,55.8796347],[37.4366938,55.8793177],[37.4341015,55.8785098],[37.4336074,55.8783546],[37.4335752,55.878345],[37.4327341,55.8780865],[37.4322075,55.8779235],[37.4302292,55.8772967],[37.4295715,55.8770899],[37.4281735,55.8766518],[37.4264208,55.876105],[37.4247304,55.8755757],[37.42342,55.8751667],[37.4227875,55.8749655],[37.420125,55.8741269],[37.4189267,55.8737294],[37.417594,55.8732752],[37.4163586,55.8728311],[37.4150474,55.8723173],[37.4136692,55.8717396],[37.4124972,55.8712249],[37.4116584,55.8708329],[37.4106563,55.8703401],[37.4097509,55.8698713],[37.4084875,55.8691696],[37.4073169,55.868463],[37.4057907,55.8674834],[37.4053254,55.867159],[37.40468,55.8666916],[37.4044547,55.8665133],[37.4035897,55.8658165],[37.4021933,55.8646402],[37.40168,55.8641699],[37.4012186,55.8637198],[37.4005012,55.8629739],[37.4002848,55.862745],[37.4002423,55.8626967],[37.3994654,55.861806],[37.399099,55.8613577],[37.398737,55.8609148],[37.3984131,55.8605032],[37.3980995,55.8600453],[37.3977371,55.8594525],[37.397528,55.8591183],[37.3967263,55.8576972],[37.3961777,55.856676],[37.3952074,55.8548698],[37.3948662,55.8542504],[37.3938621,55.8523593],[37.3930298,55.8507915],[37.3926348,55.8500521],[37.3924023,55.849623],[37.3921877,55.8491937],[37.3920341,55.8488251],[37.3918209,55.848217],[37.3918066,55.8481712],[37.3917618,55.8480041],[37.3917264,55.8478718],[37.3916561,55.8473884],[37.391626,55.8469764],[37.3916316,55.8464896],[37.3916663,55.8461656],[37.3917335,55.8457705],[37.3918073,55.8454759],[37.3919168,55.8451117],[37.3920747,55.8447087],[37.3922508,55.8443082],[37.392511,55.8438391],[37.3928022,55.8434272],[37.3930986,55.8430298],[37.3932198,55.842865],[37.393618,55.8423032],[37.3937078,55.8421634],[37.3940097,55.8416934],[37.3942758,55.8412086],[37.3946017,55.8406148],[37.3949269,55.8399437],[37.3952072,55.8392456],[37.3953405,55.8388666],[37.3954602,55.8384949],[37.3955687,55.8381338],[37.3956277,55.8377724],[37.3957479,55.8369034],[37.3957768,55.8364797],[37.3957808,55.8360874],[37.3957823,55.8359413],[37.3957824,55.8357846],[37.3957826,55.8354452],[37.3957124,55.8347882],[37.3956368,55.8342439],[37.3956277,55.8341783],[37.3956236,55.8340723],[37.3955498,55.8335999],[37.3954712,55.8332062],[37.395369,55.8328329],[37.3952809,55.8325709],[37.3952077,55.8323289],[37.3951906,55.8322663],[37.3947494,55.8308867],[37.3946269,55.8305038],[37.3946,55.8304089],[37.3945756,55.8303232],[37.3938828,55.8281755],[37.3937555,55.8278169],[37.393642,55.8274263],[37.3935553,55.8270202],[37.3934281,55.8262447],[37.3933154,55.8256176],[37.3932299,55.8251],[37.393093,55.8245283],[37.3929239,55.8239026],[37.3928655,55.8236866],[37.3922214,55.8216669],[37.3918601,55.8205025],[37.3915304,55.8194583],[37.3914785,55.8192938],[37.391335,55.8188392],[37.3909231,55.8175346],[37.3904897,55.8161617],[37.3900638,55.8148128],[37.3898853,55.8142511],[37.3897767,55.8139095],[37.3897515,55.8138302],[37.3892953,55.8123946],[37.3889483,55.8113026],[37.3887981,55.81083],[37.388746,55.810666],[37.3885494,55.8100472],[37.3883721,55.8094891],[37.3881992,55.8089299],[37.3880104,55.8083764],[37.3879092,55.8080796],[37.3878265,55.8078694],[37.3877001,55.8075651],[37.3876268,55.8073718],[37.3874985,55.8070606],[37.3872277,55.8064817],[37.3871583,55.8063406],[37.3870108,55.8060548],[37.3866761,55.8054487],[37.3865823,55.8052789],[37.3864918,55.8051328],[37.3858049,55.8040247],[37.3857888,55.8039975],[37.3848293,55.8026603],[37.3845339,55.8022711],[37.3842996,55.8019625],[37.3841048,55.8017416],[37.3836527,55.8012302],[37.3831333,55.8006928],[37.3787423,55.7961245],[37.3783091,55.7956654],[37.3774974,55.7948177],[37.3769688,55.7942841],[37.3753523,55.7925909],[37.3749456,55.7921649],[37.3736563,55.7908487],[37.3730585,55.7902141],[37.372998,55.7901417],[37.3723077,55.7893497],[37.372093,55.7890957],[37.3718278,55.7887065],[37.3713095,55.7878967],[37.3710644,55.7874561],[37.3707813,55.7868758]]]}}]}